NORAD_CAT_ID,OBJECT_NAME,OBJECT_TYPE,EPOCH,MEAN_MOTION,ECCENTRICITY,INCLINATION,RA_OF_ASC_NODE,ARG_OF_PERICENTER,MEAN_ANOMALY,BSTAR,MEAN_MOTION_DOT,MEAN_MOTION_DDOT,TLE_LINE0,TLE_LINE1,TLE_LINE2,SEMIMAJOR_AXIS,PERIOD,APOGEE,PERIGEE,DECAYED
53724.0,STARLINK-4663,PAYLOAD,2023-02-28 12:31:05,15.0885757,0.000142,53.2169,175.2085,71.2722,288.8424,0.00016038,2.267e-05,0.0,0 STARLINK-4663,1 53724U 22107AA  23059.52159108  .00002267  00000-0  16038-3 0  9991,2 53724  53.2169 175.2085 0001420  71.2722 288.8424 15.08857570 27578,6917.827,95.436,540.674,538.709,0.0
53724.0,STARLINK-4663,PAYLOAD,2023-02-28 14:06:27,15.08862928,0.0001125,53.2176,174.9104,80.3626,279.7493,8.4663e-05,1.061e-05,0.0,0 STARLINK-4663,1 53724U 22107AA  23059.58782255  .00001061  00000-0  84663-4 0  9993,2 53724  53.2176 174.9104 0001125  80.3626 279.7493 15.08862928 27589,6917.81,95.436,540.454,538.897,0.0
53724.0,STARLINK-4663,PAYLOAD,2023-03-01 10:46:30,15.08827982,0.0001141,53.2176,171.0429,85.2173,274.8949,-0.00019598,-3.404e-05,0.0,0 STARLINK-4663,1 53724U 22107AA  23060.44896561 -.00003404  00000-0 -19598-3 0  9995,2 53724  53.2176 171.0429 0001141  85.2173 274.8949 15.08827982 27253,6917.917,95.438,540.571,538.993,0.0
53724.0,STARLINK-4663,PAYLOAD,2023-03-01 13:57:17,15.08829525,0.0001222,53.2185,170.4486,96.1079,264.0053,-0.00011894,-2.18e-05,0.0,0 STARLINK-4663,1 53724U 22107AA  23060.58145107 -.00002180  00000-0 -11894-3 0  9994,2 53724  53.2185 170.4486 0001222  96.1079 264.0053 15.08829525 27730,6917.912,95.438,540.623,538.932,0.0
53724.0,STARLINK-4663,PAYLOAD,2023-03-02 18:34:12,15.08854949,0.0001244,53.2183,165.0965,88.5849,271.5286,9.7637e-05,1.267e-05,0.0,0 STARLINK-4663,1 53724U 22107AA  23061.77375585  .00001267  00000-0  97637-4 0  9994,2 53724  53.2183 165.0965 0001244  88.5849 271.5286 15.08854949 27913,6917.835,95.437,540.56,538.839,0.0
53724.0,STARLINK-4663,PAYLOAD,2023-03-03 07:17:19,15.08835726,0.0001311,53.2173,162.7177,100.1521,259.9619,0.00030655,4.594e-05,0.0,0 STARLINK-4663,1 53724U 22107AA  23062.30369278  .00004594  00000-0  30655-3 0  9998,2 53724  53.2173 162.7177 0001311 100.1521 259.9619 15.08835726 27534,6917.893,95.438,540.665,538.852,0.0
53724.0,STARLINK-4663,PAYLOAD,2023-03-03 10:28:04,15.08853919,0.0001289,53.2174,162.1233,104.4714,255.6422,0.00056903,8.783e-05,0.0,0 STARLINK-4663,1 53724U 22107AA  23062.43616520  .00008783  00000-0  56903-3 0  9995,2 53724  53.2174 162.1233 0001289 104.4714 255.6422 15.08853919 28010,6917.838,95.437,540.595,538.811,0.0
53724.0,STARLINK-4663,PAYLOAD,2023-03-03 12:03:27,15.08860761,0.0001331,53.2171,161.8263,105.5656,254.5483,0.00070035,0.00010882,0.0,0 STARLINK-4663,1 53724U 22107AA  23062.50240479  .00010882  00000-0  70035-3 0  9994,2 53724  53.2171 161.8263 0001331 105.5656 254.5483 15.08860761 27568,6917.817,95.436,540.603,538.761,0.0
53724.0,STARLINK-4663,PAYLOAD,2023-03-04 07:08:05,15.08831987,0.0001199,53.2172,158.2586,93.9702,266.1428,-0.00038221,-6.364e-05,0.0,0 STARLINK-4663,1 53724U 22107AA  23063.29728547 -.00006364  00000-0 -38221-3 0  9991,2 53724  53.2172 158.2586 0001199  93.9702 266.1428 15.08831987 27680,6917.905,95.438,540.599,538.94,0.0
53724.0,STARLINK-4663,PAYLOAD,2023-03-04 11:54:14,15.08836323,0.0001155,53.2169,157.3674,86.03,274.0824,-0.00019029,-3.315e-05,0.0,0 STARLINK-4663,1 53724U 22107AA  23063.49600419 -.00003315  00000-0 -19029-3 0  9998,2 53724  53.2169 157.3674 0001155  86.0300 274.0824 15.08836323 28175,6917.892,95.438,540.556,538.958,0.0
53724.0,STARLINK-4663,PAYLOAD,2023-03-04 13:29:37,15.08845009,0.0001445,53.218,157.0718,99.749,260.3665,7.2708e-05,8.7e-06,0.0,0 STARLINK-4663,1 53724U 22107AA  23063.56224246  .00000870  00000-0  72708-4 0  9991,2 53724  53.2180 157.0718 0001445  99.7490 260.3665 15.08845009 27729,6917.865,95.437,540.73,538.73,0.0
53724.0,STARLINK-4663,PAYLOAD,2023-03-04 18:15:47,15.08867622,0.0001018,53.217,156.1783,76.9077,283.2029,0.0029466,0.00046955,0.0,0 STARLINK-4663,1 53724U 22107AA  23063.76096150  .00046955  00000-0  29466-2 0  9999,2 53724  53.2170 156.1783 0001018  76.9077 283.2029 15.08867622 27750,6917.796,95.436,540.365,538.957,0.0
53724.0,STARLINK-4663,PAYLOAD,2023-03-05 22:52:44,15.08876478,0.0001759,53.2162,150.8269,67.5512,292.5667,0.0026689,0.00042487,0.0,0 STARLINK-4663,1 53724U 22107AA  23064.95329262  .00042487  00000-0  26689-2 0  9994,2 53724  53.2162 150.8269 0001759  67.5512 292.5667 15.08876478 27933,6917.769,95.435,540.851,538.417,0.0
53724.0,STARLINK-4663,PAYLOAD,2023-03-06 11:35:48,15.08869617,0.0001065,53.2168,148.4474,69.1287,290.9819,0.0027474,0.00043744,0.0,0 STARLINK-4663,1 53724U 22107AA  23065.48320572  .00043744  00000-0  27474-2 0  9998,2 53724  53.2168 148.4474 0001065  69.1287 290.9819 15.08869617 28015,6917.79,95.436,540.392,538.918,0.0
53724.0,STARLINK-4663,PAYLOAD,2023-03-06 14:46:34,15.08881627,0.0001157,53.2169,147.8522,71.5806,288.5312,0.0027525,0.00043841,0.0,0 STARLINK-4663,1 53724U 22107AA  23065.61568229  .00043841  00000-0  27525-2 0  9991,2 53724  53.2169 147.8522 0001157  71.5806 288.5312 15.08881627 28497,6917.753,95.435,540.419,538.818,0.0
53724.0,STARLINK-4663,PAYLOAD,2023-03-06 22:43:30,15.08868066,9.19e-05,53.2161,146.366,123.7295,236.3785,-0.0012475,-0.00020102,0.0,0 STARLINK-4663,1 53724U 22107AA  23065.94688153 -.00020102  00000-0 -12475-2 0  9991,2 53724  53.2161 146.3660 0000919 123.7295 236.3785 15.08868066 28085,6917.795,95.436,540.295,539.024,0.0
53724.0,STARLINK-4663,PAYLOAD,2023-03-07 16:12:45,15.08864317,0.0001369,53.2173,143.0945,97.4433,262.6715,0.0033522,0.00053503,0.0,0 STARLINK-4663,1 53724U 22107AA  23066.67553024  .00053503  00000-0  33522-2 0  9995,2 53724  53.2173 143.0945 0001369  97.4433 262.6715 15.08864317 28191,6917.806,95.436,540.618,538.724,0.0
53724.0,STARLINK-4663,PAYLOAD,2023-03-07 22:34:19,15.08810588,0.0002086,53.2175,141.9069,73.0018,287.1203,0.0031772,0.000506,0.0,0 STARLINK-4663,1 53724U 22107AA  23066.94049937  .00050600  00000-0  31772-2 0  9998,2 53724  53.2175 141.9069 0002086  73.0018 287.1203 15.08810588 28693,6917.97,95.439,541.278,538.392,0.0
53724.0,STARLINK-4663,PAYLOAD,2023-03-08 09:42:01,15.08845882,0.0001326,53.2181,139.8241,84.8363,275.2781,0.0023607,0.00037489,0.0,0 STARLINK-4663,1 53724U 22107AA  23067.40417998  .00037489  00000-0  23607-2 0  9994,2 53724  53.2181 139.8241 0001326  84.8363 275.2781 15.08845882 28309,6917.862,95.437,540.645,538.81,0.0
53724.0,STARLINK-4663,PAYLOAD,2023-03-09 11:08:10,15.08887289,0.0001355,53.2172,135.0669,79.3458,280.7687,0.0025048,0.00039853,0.0,0 STARLINK-4663,1 53724U 22107AA  23068.46401430  .00039853  00000-0  25048-2 0  9993,2 53724  53.2172 135.0669 0001355  79.3458 280.7687 15.08887289 28467,6917.736,95.435,540.538,538.663,0.0
53724.0,STARLINK-4663,PAYLOAD,2023-03-10 04:37:25,15.08852909,0.0001712,53.2177,131.7972,114.1217,245.9954,0.001684,0.00026624,0.0,0 STARLINK-4663,1 53724U 22107AA  23069.19265636  .00026624  00000-0  16840-2 0  9992,2 53724  53.2177 131.7972 0001712 114.1217 245.9954 15.08852909 28573,6917.841,95.437,540.89,538.522,0.0
53724.0,STARLINK-4663,PAYLOAD,2023-03-10 10:58:58,15.0884884,8.02e-05,53.2171,130.607,87.8381,272.2703,0.00054117,8.337e-05,0.0,0 STARLINK-4663,1 53724U 22107AA  23069.45761598  .00008337  00000-0  54117-3 0  9990,2 53724  53.2171 130.6070 0000802  87.8381 272.2703 15.08848840 28610,6917.853,95.437,540.273,539.164,0.0
53724.0,STARLINK-4663,PAYLOAD,2023-03-10 20:31:17,15.08840455,8.3e-05,53.2165,128.8212,96.8001,263.3086,0.00035413,5.353e-05,0.0,0 STARLINK-4663,1 53724U 22107AA  23069.85505970  .00005353  00000-0  35413-3 0  9997,2 53724  53.2165 128.8212 0000830  96.8001 263.3086 15.08840455 29137,6917.879,95.438,540.318,539.17,0.0
53724.0,STARLINK-4663,PAYLOAD,2023-03-11 02:52:49,15.08831102,0.0001058,53.2171,127.6347,101.6236,258.4875,0.00071704,0.00011139,0.0,0 STARLINK-4663,1 53724U 22107AA  23070.12002194  .00011139  00000-0  71704-3 0  9991,2 53724  53.2171 127.6347 0001058 101.6236 258.4875 15.08831102 28711,6917.908,95.438,540.505,539.041,0.0
53724.0,STARLINK-4663,PAYLOAD,2023-03-11 09:14:22,15.08835245,0.000122,53.2177,126.4445,111.7685,248.3437,0.00030941,4.639e-05,0.0,0 STARLINK-4663,1 53724U 22107AA  23070.38498166  .00004639  00000-0  30941-3 0  9992,2 53724  53.2177 126.4445 0001220 111.7685 248.3437 15.08835245 29214,6917.895,95.438,540.604,538.916,0.0
53724.0,STARLINK-4663,PAYLOAD,2023-03-11 14:00:31,15.08849225,0.0001035,53.2184,125.5525,106.9225,253.1881,0.00083728,0.00013066,0.0,0 STARLINK-4663,1 53724U 22107AA  23070.58369919  .00013066  00000-0  83728-3 0  9992,2 53724  53.2184 125.5525 0001035 106.9225 253.1881 15.08849225 29244,6917.852,95.437,540.433,539.001,0.0
53724.0,STARLINK-4663,PAYLOAD,2023-03-12 12:15:55,15.08840418,9.99e-05,53.2167,121.3888,131.7838,228.324,0.00035681,5.395e-05,0.0,0 STARLINK-4663,1 53724U 22107AA  23071.51106322  .00005395  00000-0  35681-3 0  9994,2 53724  53.2167 121.3888 0000999 131.7838 228.3240 15.08840418 28927,6917.879,95.438,540.435,539.053,0.0
53724.0,STARLINK-4663,PAYLOAD,2023-03-12 13:51:19,15.08846975,0.0001218,53.2157,121.0894,93.3716,266.7415,0.00072327,0.00011244,0.0,0 STARLINK-4663,1 53724U 22107AA  23071.57730553  .00011244  00000-0  72327-3 0  9997,2 53724  53.2157 121.0894 0001218  93.3716 266.7415 15.08846975 29399,6917.859,95.437,540.567,538.881,0.0
53724.0,STARLINK-4663,PAYLOAD,2023-03-14 02:25:10,15.08822724,8.14e-05,53.2175,114.2492,102.2099,257.8985,-0.00027691,-4.69e-05,0.0,0 STARLINK-4663,1 53724U 22107AA  23073.10082105 -.00004690  00000-0 -27691-3 0  9994,2 53724  53.2175 114.2492 0000814 102.2099 257.8985 15.08822724 29166,6917.933,95.439,540.361,539.235,0.0
53724.0,STARLINK-4663,PAYLOAD,2023-03-14 10:22:06,15.08832493,0.0001056,53.2159,112.7631,105.0169,255.094,0.0004356,6.65e-05,0.0,0 STARLINK-4663,1 53724U 22107AA  23073.43202460  .00006650  00000-0  43560-3 0  9997,2 53724  53.2159 112.7631 0001056 105.0169 255.0940 15.08832493 29675,6917.903,95.438,540.499,539.038,0.0
